NORAD_CAT_ID,OBJECT_NAME,OBJECT_TYPE,EPOCH,MEAN_MOTION,ECCENTRICITY,INCLINATION,RA_OF_ASC_NODE,ARG_OF_PERICENTER,MEAN_ANOMALY,BSTAR,MEAN_MOTION_DOT,MEAN_MOTION_DDOT,TLE_LINE0,TLE_LINE1,TLE_LINE2,SEMIMAJOR_AXIS,PERIOD,APOGEE,PERIGEE,DECAYED
55638.0,STARLINK-5507,PAYLOAD,2023-09-17 12:31:52,14.98331809,0.0003131,70.0004,324.1454,273.7018,86.3783,7.9276e-05,8.53e-06,0.0,0 STARLINK-5507,1 55638U 23021L   23260.52213653  .00000853  00000-0  79276-4 0  9996,2 55638  70.0004 324.1454 0003131 273.7018  86.3783 14.98331809 32869,6950.187,96.107,574.228,569.876,0.0
55638.0,STARLINK-5507,PAYLOAD,2023-09-18 02:57:05,14.98333955,0.0003178,70.0007,322.6298,274.5154,85.5642,-6.3446e-05,-8.5e-06,0.0,0 STARLINK-5507,1 55638U 23021L   23261.12297721 -.00000850  00000-0 -63446-4 0  9992,2 55638  70.0007 322.6298 0003178 274.5154  85.5642 14.98333955 32658,6950.181,96.107,574.254,569.837,0.0
55638.0,STARLINK-5507,PAYLOAD,2023-09-18 12:33:53,14.98336434,0.0002968,70.0002,321.6201,268.5199,91.562,-3.4003e-05,-4.99e-06,0.0,0 STARLINK-5507,1 55638U 23021L   23261.52353329 -.00000499  00000-0 -34003-4 0  9999,2 55638  70.0002 321.6201 0002968 268.5199  91.5620 14.98336434 33013,6950.173,96.107,574.101,569.975,0.0
55638.0,STARLINK-5507,PAYLOAD,2023-09-18 14:10:01,14.98337951,0.0003192,70.0002,321.4519,274.1182,85.9612,-3.0003e-05,-4.51e-06,0.0,0 STARLINK-5507,1 55638U 23021L   23261.59029203 -.00000451  00000-0 -30003-4 0  9991,2 55638  70.0002 321.4519 0003192 274.1182  85.9612 14.98337951 33022,6950.168,96.106,574.252,569.815,0.0
55638.0,STARLINK-5507,PAYLOAD,2023-09-19 09:23:40,14.98312623,0.0003323,70.0,319.4319,278.1357,81.9425,-0.00019832,-2.458e-05,0.0,0 STARLINK-5507,1 55638U 23021L   23262.39143765 -.00002458  00000-0 -19832-3 0  9995,2 55638  70.0000 319.4319 0003323 278.1357  81.9425 14.98312623 32845,6950.247,96.108,574.421,569.802,0.0
55638.0,STARLINK-5507,PAYLOAD,2023-09-20 12:37:56,14.98329254,0.0002804,70.0008,316.5726,261.124,98.9602,6.8472e-05,7.24e-06,0.0,0 STARLINK-5507,1 55638U 23021L   23263.52634398  .00000724  00000-0  68472-4 0  9995,2 55638  70.0008 316.5726 0002804 261.1240  98.9602 14.98329254 33012,6950.195,96.107,574.009,570.111,0.0
55638.0,STARLINK-5507,PAYLOAD,2023-09-21 12:39:56,14.98330385,0.0003031,70.0,314.047,267.0504,93.0308,0.00021028,2.417e-05,0.0,0 STARLINK-5507,1 55638U 23021L   23264.52773931  .00002417  00000-0  21028-3 0  9999,2 55638  70.0000 314.0470 0003031 267.0504  93.0308 14.98330385 33469,6950.192,96.107,574.163,569.95,0.0
55638.0,STARLINK-5507,PAYLOAD,2023-09-21 20:40:36,14.9833504,0.0003483,70.0009,313.2044,271.9968,88.0793,0.00018987,2.174e-05,0.0,0 STARLINK-5507,1 55638U 23021L   23264.86153536  .00002174  00000-0  18987-3 0  9999,2 55638  70.0009 313.2044 0003483 271.9968  88.0793 14.98335040 33516,6950.177,96.107,574.463,569.622,0.0
55638.0,STARLINK-5507,PAYLOAD,2023-09-22 12:41:57,14.98337823,0.0002898,70.0003,311.5216,273.1402,86.9425,4.4559e-05,4.39e-06,0.0,0 STARLINK-5507,1 55638U 23021L   23265.52913533  .00000439  00000-0  44559-4 0  9991,2 55638  70.0003 311.5216 0002898 273.1402  86.9425 14.98337823 33619,6950.169,96.106,574.048,570.02,0.0
55638.0,STARLINK-5507,PAYLOAD,2023-09-23 12:43:58,14.98335487,0.0003188,69.9995,308.9966,265.5515,94.528,-6.4671e-05,-8.65e-06,0.0,0 STARLINK-5507,1 55638U 23021L   23266.53053324 -.00000865  00000-0 -64671-4 0  9998,2 55638  69.9995 308.9966 0003188 265.5515  94.5280 14.98335487 33462,6950.176,96.107,574.257,569.825,0.0
55638.0,STARLINK-5507,PAYLOAD,2023-09-24 12:45:58,14.98336124,0.0003105,69.9989,306.47,266.0081,94.0723,-1.8904e-05,-3.19e-06,0.0,0 STARLINK-5507,1 55638U 23021L   23267.53192846 -.00000319  00000-0 -18904-4 0  9994,2 55638  69.9989 306.4700 0003105 266.0081  94.0723 14.98336124 33913,6950.174,96.107,574.197,569.881,0.0
55638.0,STARLINK-5507,PAYLOAD,2023-09-25 12:47:59,14.9832173,0.0002854,69.9991,303.9454,266.158,93.9253,0.00021736,2.501e-05,0.0,0 STARLINK-5507,1 55638U 23021L   23268.53333122  .00002501  00000-0  21736-3 0  9998,2 55638  69.9991 303.9454 0002854 266.1580  93.9253 14.98321730 34069,6950.218,96.108,574.067,570.1,0.0
55638.0,STARLINK-5507,PAYLOAD,2023-09-26 11:13:52,14.98331003,0.0003087,69.999,301.5893,269.1254,90.9551,4.5364e-06,-3.9e-07,0.0,0 STARLINK-5507,1 55638U 23021L   23269.46796908 -.00000039  00000-0  45364-5 0  9996,2 55638  69.9990 301.5893 0003087 269.1254  90.9551 14.98331003 34207,6950.19,96.107,574.2,569.909,0.0
55638.0,STARLINK-5507,PAYLOAD,2023-09-27 09:39:45,14.98326862,0.0003099,69.9986,299.2321,270.7378,89.3426,-4.343e-05,-6.11e-06,0.0,0 STARLINK-5507,1 55638U 23021L   23270.40261356 -.00000611  00000-0 -43430-4 0  9994,2 55638  69.9986 299.2321 0003099 270.7378  89.3426 14.98326862 34041,6950.203,96.107,574.221,569.914,0.0
55638.0,STARLINK-5507,PAYLOAD,2023-09-27 11:15:53,14.98326845,0.0003098,69.9986,299.0638,270.7725,89.3079,-4.2732e-05,-6.03e-06,0.0,0 STARLINK-5507,1 55638U 23021L   23270.46937367 -.00000603  00000-0 -42732-4 0  9997,2 55638  69.9986 299.0638 0003098 270.7725  89.3079 14.98326845 34354,6950.203,96.107,574.221,569.914,0.0
55638.0,STARLINK-5507,PAYLOAD,2023-09-28 11:17:54,14.98330296,0.0003115,69.9982,296.5381,269.5196,90.5606,1.4006e-05,7.4e-07,0.0,0 STARLINK-5507,1 55638U 23021L   23271.47077065  .00000074  00000-0  14006-4 0  9992,2 55638  69.9982 296.5381 0003115 269.5196  90.5606 14.98330296 34204,6950.192,96.107,574.222,569.892,0.0
55638.0,STARLINK-5507,PAYLOAD,2023-09-29 11:19:55,14.98328903,0.0003109,69.9981,294.0128,268.6435,91.4368,5.6316e-05,5.79e-06,0.0,0 STARLINK-5507,1 55638U 23021L   23272.47217082  .00000579  00000-0  56316-4 0  9998,2 55638  69.9981 294.0128 0003109 268.6435  91.4368 14.98328903 34357,6950.196,96.107,574.222,569.9,0.0
55638.0,STARLINK-5507,PAYLOAD,2023-09-30 04:57:23,14.98334559,0.0003127,69.998,292.1614,267.4302,92.6499,5.215e-05,5.29e-06,0.0,0 STARLINK-5507,1 55638U 23021L   23273.20652619  .00000529  00000-0  52150-4 0  9996,2 55638  69.9980 292.1614 0003127 267.4302  92.6499 14.98334559 34762,6950.179,96.107,574.217,569.87,0.0
55638.0,STARLINK-5507,PAYLOAD,2023-09-30 09:45:47,14.98336245,0.0003097,69.9981,291.6565,268.8966,91.1838,7.0998e-05,7.54e-06,0.0,0 STARLINK-5507,1 55638U 23021L   23273.40680404  .00000754  00000-0  70998-4 0  9991,2 55638  69.9981 291.6565 0003097 268.8966  91.1838 14.98336245 34494,6950.174,96.107,574.191,569.886,0.0
55638.0,STARLINK-5507,PAYLOAD,2023-10-01 01:47:08,14.98329447,0.0003003,69.9983,289.9723,271.5284,88.5531,-1.1632e-05,-2.32e-06,0.0,0 STARLINK-5507,1 55638U 23021L   23274.07440915 -.00000232  00000-0 -11632-4 0  9999,2 55638  69.9983 289.9723 0003003 271.5284  88.5531 14.98329447 34590,6950.195,96.107,574.147,569.972,0.0
55638.0,STARLINK-5507,PAYLOAD,2023-10-01 11:23:57,14.98329151,0.0003033,69.9982,288.9627,270.8208,89.2603,-1.8546e-05,-3.14e-06,0.0,0 STARLINK-5507,1 55638U 23021L   23274.47496933 -.00000314  00000-0 -18546-4 0  9996,2 55638  69.9982 288.9627 0003033 270.8208  89.2603 14.98329151 34952,6950.196,96.107,574.169,569.953,0.0
55638.0,STARLINK-5507,PAYLOAD,2023-10-01 17:48:29,14.98327737,0.0003036,69.9982,288.2892,272.2118,87.8694,-4.3942e-05,-6.17e-06,0.0,0 STARLINK-5507,1 55638U 23021L   23274.74201104 -.00000617  00000-0 -43942-4 0  9994,2 55638  69.9982 288.2892 0003036 272.2118  87.8694 14.98327737 34994,6950.2,96.107,574.175,569.955,0.0
55638.0,STARLINK-5507,PAYLOAD,2023-10-02 01:49:10,14.98329634,0.0002983,69.9982,287.4476,271.2585,88.8232,-7.9524e-05,-1.042e-05,0.0,0 STARLINK-5507,1 55638U 23021L   23275.07581090 -.00001042  00000-0 -79524-4 0  9994,2 55638  69.9982 287.4476 0002983 271.2585  88.8232 14.98329634 34740,6950.194,96.107,574.132,569.986,0.0
55638.0,STARLINK-5507,PAYLOAD,2023-10-02 17:50:30,14.98329875,0.0002979,69.9982,285.7642,271.483,88.5988,-2.5007e-05,-3.91e-06,0.0,0 STARLINK-5507,1 55638U 23021L   23275.74340935 -.00000391  00000-0 -25007-4 0  9992,2 55638  69.9982 285.7642 0002979 271.4830  88.5988 14.98329875 35143,6950.193,96.107,574.129,569.988,0.0
55638.0,STARLINK-5507,PAYLOAD,2023-10-03 05:03:26,14.98328578,0.0003051,69.9979,284.5858,271.2859,88.7951,3.2779e-05,2.98e-06,0.0,0 STARLINK-5507,1 55638U 23021L   23276.21072850  .00000298  00000-0  32779-4 0  9991,2 55638  69.9979 284.5858 0003051 271.2859  88.7951 14.98328578 34911,6950.197,96.107,574.183,569.942,0.0
55638.0,STARLINK-5507,PAYLOAD,2023-10-03 11:27:59,14.98330655,0.0003035,69.9979,283.9126,270.2797,89.8014,5.4057e-05,5.52e-06,0.0,0 STARLINK-5507,1 55638U 23021L   23276.47776652  .00000552  00000-0  54057-4 0  9996,2 55638  69.9979 283.9126 0003035 270.2797  89.8014 14.98330655 35253,6950.191,96.107,574.165,569.946,0.0
55638.0,STARLINK-5507,PAYLOAD,2023-10-04 11:30:35,14.97968812,0.0001758,69.9979,281.3886,169.8505,190.2689,-0.0036091,-0.00042495,0.0,0 STARLINK-5507,1 55638U 23021L   23277.47957368 -.00042495  00000-0 -36091-2 0  9992,2 55638  69.9979 281.3886 0001758 169.8505 190.2689 14.97968812 35108,6951.31,96.13,574.397,571.953,0.0
55638.0,STARLINK-5507,PAYLOAD,2023-10-05 01:55:12,14.98327055,0.0003057,69.9981,279.872,268.8769,91.204,-2.9171e-05,-4.41e-06,0.0,0 STARLINK-5507,1 55638U 23021L   23278.08001098 -.00000441  00000-0 -29171-4 0  9998,2 55638  69.9981 279.8720 0003057 268.8769  91.2040 14.98327055 35195,6950.202,96.107,574.192,569.942,0.0
55638.0,STARLINK-5507,PAYLOAD,2023-10-05 08:19:44,14.98330432,0.000304,69.9981,279.1983,267.7527,92.3284,2.3911e-06,-6.5e-07,0.0,0 STARLINK-5507,1 55638U 23021L   23278.34704808 -.00000065  00000-0  23911-5 0  9994,2 55638  69.9981 279.1983 0003040 267.7527  92.3284 14.98330432 35534,6950.192,96.107,574.169,569.944,0.0
55638.0,STARLINK-5507,PAYLOAD,2023-10-05 17:56:33,14.98331453,0.0003042,69.9983,278.1886,268.5711,91.5099,1.3328e-05,6.6e-07,0.0,0 STARLINK-5507,1 55638U 23021L   23278.74760671  .00000066  00000-0  13328-4 0  9998,2 55638  69.9983 278.1886 0003042 268.5711  91.5099 14.98331453 35598,6950.188,96.107,574.168,569.939,0.0
